{
  "type": "FeatureCollection",
  "features": [
    {
      "type": "Feature",
      "properties": {
        "name": "Roundabout pavement clip"
      },
      "geometry": {
        "type": "Polygon",
        "coordinates": [
          [
            [
              -83.6648364137,
              33.9597292708
            ],
            [
              -83.6647331931,
              33.9596823284
            ],
            [
              -83.6646627318,
              33.959653982
            ],
            [
              -83.6646077237,
              33.9596347792
            ],
            [
              -83.6645619663,
              33.959619874
            ],
            [
              -83.6645229555,
              33.9596079401
            ],
            [
              -83.6644633004,
              33.9595919762
            ],
            [
              -83.6643783637,
              33.9595710354
            ],
            [
              -83.664307759,
              33.959553067
            ],
            [
              -83.6642743646,
              33.9595426615
            ],
            [
              -83.6642440552,
              33.9595303716
            ],
            [
              -83.6642195571,
              33.9595170829
            ],
            [
              -83.66419926,
              33.9595044303
            ],
            [
              -83.6641645594,
              33.9594759755
            ],
            [
              -83.6641524327,
              33.9594645112
            ],
            [
              -83.6641418527,
              33.9594525143
            ],
            [
              -83.6641309799,
              33.9594385972
            ],
            [
              -83.6641216523,
              33.9594246924
            ],
            [
              -83.6641177276,
              33.9594179945
            ],
            [
              -83.6641158147,
              33.9594132969
            ],
            [
              -83.6641143424,
              33.9594068007
            ],
            [
              -83.6641140796,
              33.9594034997
            ],
            [
              -83.664114273,
              33.9593986491
            ],
            [
              -83.6641156608,
              33.9593920313
            ],
            [
              -83.6641182702,
              33.959385788
            ],
            [
              -83.664120017,
              33.9593828172
            ],
            [
              -83.6641231585,
              33.9593786035
            ],
            [
              -83.6641833136,
              33.9593096105
            ],
            [
              -83.6641940421,
              33.9592984157
            ],
            [
              -83.6642107277,
              33.9592801385
            ],
            [
              -83.6642374976,
              33.9592519802
            ],
            [
              -83.6642675409,
              33.9592210132
            ],
            [
              -83.6642869776,
              33.9592015446
            ],
            [
              -83.6644706408,
              33.9590335499
            ],
            [
              -83.6645085256,
              33.9590016515
            ],
            [
              -83.6646526457,
              33.9589271853
            ],
            [
              -83.6649928654,
              33.958640715
            ],
            [
              -83.6651559547,
              33.9585019744
            ],
            [
              -83.6651552972,
              33.9584863693
            ],
            [
              -83.6651618901,
              33.9584610774
            ],
            [
              -83.665173207,
              33.9584421444
            ],
            [
              -83.665177791,
              33.958436975
            ],
            [
              -83.6651878908,
              33.9584270555
            ],
            [
              -83.6653752161,
              33.9582635926
            ],
            [
              -83.6659724784,
              33.9577076931
            ],
            [
              -83.6659253551,
              33.9576730292
            ],
            [
              -83.6656299919,
              33.9579439997
            ],
            [
              -83.6650877374,
              33.9584203463
            ],
            [
              -83.6649555522,
              33.958528187
            ],
            [
              -83.6648881527,
              33.9585780441
            ],
            [
              -83.6647045178,
              33.9587074473
            ],
            [
              -83.6645735064,
              33.9587971384
            ],
            [
              -83.6645132857,
              33.9588406194
            ],
            [
              -83.6644764416,
              33.9588692797
            ],
            [
              -83.6644725064,
              33.9588738985
            ],
            [
              -83.6644520449,
              33.958889974
            ],
            [
              -83.6643760368,
              33.9589576797
            ],
            [
              -83.6642505982,
              33.9590783749
            ],
            [
              -83.6642292263,
              33.9590977828
            ],
            [
              -83.6642189696,
              33.9591060997
            ],
            [
              -83.6642096951,
              33.9591130766
            ],
            [
              -83.6641952906,
              33.9591228136
            ],
            [
              -83.6641790022,
              33.9591321418
            ],
            [
              -83.6641618168,
              33.9591406523
            ],
            [
              -83.6641404972,
              33.9591492711
            ],
            [
              -83.6641243318,
              33.9591546995
            ],
            [
              -83.6641088292,
              33.9591590198
            ],
            [
              -83.6640927608,
              33.9591626529
            ],
            [
              -83.6640823444,
              33.9591645737
            ],
            [
              -83.6640653537,
              33.9591668131
            ],
            [
              -83.6640455391,
              33.9591685932
            ],
            [
              -83.6640342482,
              33.9591689766
            ],
            [
              -83.6640175145,
              33.9591688438
            ],
            [
              -83.6640029201,
              33.9591680807
            ],
            [
              -83.6639835726,
              33.959166079
            ],
            [
              -83.6639671263,
              33.9591634603
            ],
            [
              -83.6639502849,
              33.9591599001
            ],
            [
              -83.6639317472,
              33.9591548696
            ],
            [
              -83.6639136739,
              33.9591487776
            ],
            [
              -83.6639004765,
              33.9591435296
            ],
            [
              -83.6638657371,
              33.9591280688
            ],
            [
              -83.6638391989,
              33.9591170796
            ],
            [
              -83.6638074814,
              33.9591050226
            ],
            [
              -83.6637746639,
              33.9590936812
            ],
            [
              -83.663751369,
              33.9590863259
            ],
            [
              -83.6637384584,
              33.959082551
            ],
            [
              -83.6637099609,
              33.9590745894
            ],
            [
              -83.6636832499,
              33.9590677845
            ],
            [
              -83.6636398456,
              33.9590584328
            ],
            [
              -83.6636221707,
              33.9590551115
            ],
            [
              -83.663572651,
              33.9590472469
            ],
            [
              -83.6635336724,
              33.9590425898
            ],
            [
              -83.6635187164,
              33.959041129
            ],
            [
              -83.6634935985,
              33.9590391565
            ],
            [
              -83.6633827062,
              33.9590340433
            ],
            [
              -83.6632993912,
              33.9590277645
            ],
            [
              -83.6632092226,
              33.9590183807
            ],
            [
              -83.6631202309,
              33.9590045899
            ],
            [
              -83.6630372379,
              33.9589883301
            ],
            [
              -83.6629111496,
              33.9589584064
            ],
            [
              -83.6628166239,
              33.9589302679
            ],
            [
              -83.6627343984,
              33.9589009679
            ],
            [
              -83.6626013359,
              33.9588504051
            ],
            [
              -83.6625239276,
              33.9588183024
            ],
            [
              -83.6624348318,
              33.9587831924
            ],
            [
              -83.6623356467,
              33.9587416839
            ],
            [
              -83.6622625612,
              33.9587125581
            ],
            [
              -83.6614739552,
              33.9583896081
            ],
            [
              -83.6612244829,
              33.9582888588
            ],
            [
              -83.6611334207,
              33.9583251667
            ],
            [
              -83.6621619204,
              33.9587438977
            ],
            [
              -83.6627263086,
              33.9589960033
            ],
            [
              -83.6628181025,
              33.959034013
            ],
            [
              -83.6628888372,
              33.9590603887
            ],
            [
              -83.6629563848,
              33.9590808052
            ],
            [
              -83.6630456793,
              33.9591060168
            ],
            [
              -83.6631459234,
              33.9591285405
            ],
            [
              -83.6633553762,
              33.9591685205
            ],
            [
              -83.6633874153,
              33.959175967
            ],
            [
              -83.6634106486,
              33.9591833272
            ],
            [
              -83.6634238887,
              33.9591884635
            ],
            [
              -83.6634399517,
              33.959195544
            ],
            [
              -83.6634513003,
              33.9592009946
            ],
            [
              -83.6634771943,
              33.9592159889
            ],
            [
              -83.6634894565,
              33.9592241147
            ],
            [
              -83.6635050183,
              33.9592360783
            ],
            [
              -83.6635231907,
              33.9592514347
            ],
            [
              -83.6635598011,
              33.9592947264
            ],
            [
              -83.6635615041,
              33.9592973226
            ],
            [
              -83.6635645312,
              33.9593034607
            ],
            [
              -83.6635663369,
              33.959309924
            ],
            [
              -83.6635668746,
              33.9593165451
            ],
            [
              -83.6635661303,
              33.9593231522
            ],
            [
              -83.6635647411,
              33.9593279953
            ],
            [
              -83.6635626613,
              33.9593326634
            ],
            [
              -83.6635609056,
              33.9593356446
            ],
            [
              -83.6635576643,
              33.9593399704
            ],
            [
              -83.6635453202,
              33.9593545071
            ],
            [
              -83.6634886969,
              33.9594190305
            ],
            [
              -83.6633970874,
              33.9595145387
            ],
            [
              -83.6633196897,
              33.9595904661
            ],
            [
              -83.6632767257,
              33.9596293518
            ],
            [
              -83.6632599772,
              33.9596438564
            ],
            [
              -83.6632386059,
              33.9596630239
            ],
            [
              -83.6632083407,
              33.9596890126
            ],
            [
              -83.6631027678,
              33.9597748946
            ],
            [
              -83.6630143552,
              33.9598404877
            ],
            [
              -83.6628409552,
              33.9599556522
            ],
            [
              -83.6627229081,
              33.9600290159
            ],
            [
              -83.6625681603,
              33.9601102851
            ],
            [
              -83.6623754993,
              33.9602001263
            ],
            [
              -83.662106952,
              33.9603060748
            ],
            [
              -83.6619047843,
              33.960379793
            ],
            [
              -83.6612305951,
              33.9606018922
            ],
            [
              -83.660642092,
              33.96078075
            ],
            [
              -83.660663311,
              33.9608313369
            ],
            [
              -83.6612797578,
              33.9606557895
            ],
            [
              -83.6617297647,
              33.9605100838
            ],
            [
              -83.6620846884,
              33.9603876926
            ],
            [
              -83.6624162251,
              33.96025622
            ],
            [
              -83.6626299349,
              33.9601661429
            ],
            [
              -83.6628322582,
              33.9600683023
            ],
            [
              -83.6629576857,
              33.9599953665
            ],
            [
              -83.6631360845,
              33.9598746805
            ],
            [
              -83.6632246458,
              33.9598054157
            ],
            [
              -83.663331958,
              33.9597200647
            ],
            [
              -83.6634818072,
              33.9595995626
            ],
            [
              -83.6635077987,
              33.9595814613
            ],
            [
              -83.6635323335,
              33.9595692857
            ],
            [
              -83.6635595212,
              33.959557997
            ],
            [
              -83.6635904587,
              33.9595482598
            ],
            [
              -83.6636136326,
              33.9595438606
            ],
            [
              -83.6636466723,
              33.959539173
            ],
            [
              -83.6636712808,
              33.9595391421
            ],
            [
              -83.663686034,
              33.9595401462
            ],
            [
              -83.6636969954,
              33.9595416208
            ],
            [
              -83.6637078129,
              33.9595437068
            ],
            [
              -83.6637219276,
              33.9595474223
            ],
            [
              -83.6637355856,
              33.9595521775
            ],
            [
              -83.6637486768,
              33.9595579343
            ],
            [
              -83.6637549767,
              33.959561174
            ],
            [
              -83.6637766915,
              33.9595734452
            ],
            [
              -83.6637936865,
              33.9595826474
            ],
            [
              -83.6638195941,
              33.959595902
            ],
            [
              -83.6638371321,
              33.9596043672
            ],
            [
              -83.6638703827,
              33.9596191993
            ],
            [
              -83.6638990765,
              33.9596312102
            ],
            [
              -83.6639427604,
              33.9596474606
            ],
            [
              -83.663990521,
              33.9596627269
            ],
            [
              -83.6640221202,
              33.9596715886
            ],
            [
              -83.6640688627,
              33.9596833037
            ],
            [
              -83.6641150326,
              33.9596923133
            ],
            [
              -83.6641607575,
              33.9596999531
            ],
            [
              -83.6641973318,
              33.9597044867
            ],
            [
              -83.6642375306,
              33.9597080975
            ],
            [
              -83.6643312958,
              33.9597175076
            ],
            [
              -83.6643660325,
              33.959722168
            ],
            [
              -83.6644221386,
              33.9597313846
            ],
            [
              -83.6644650439,
              33.9597388094
            ],
            [
              -83.6644922894,
              33.9597440295
            ],
            [
              -83.6645316828,
              33.9597521936
            ],
            [
              -83.6645827882,
              33.9597638056
            ],
            [
              -83.6646407387,
              33.9597785306
            ],
            [
              -83.6646960949,
              33.959793907
            ],
            [
              -83.6647271317,
              33.959803482
            ],
            [
              -83.6647932381,
              33.9598251986
            ],
            [
              -83.6648449222,
              33.9598437693
            ],
            [
              -83.664908354,
              33.9598686137
            ],
            [
              -83.6651127921,
              33.9599519331
            ],
            [
              -83.6654483103,
              33.9600924617
            ],
            [
              -83.6654857555,
              33.9600289915
            ],
            [
              -83.6653400232,
              33.9599718779
            ],
            [
              -83.6652716869,
              33.9599430533
            ],
            [
              -83.6652179066,
              33.9599185017
            ],
            [
              -83.6651385045,
              33.9598809764
            ],
            [
              -83.6648364137,
              33.9597292708
            ]
          ],
          [
            [
              -83.6638694902,
              33.9592483156
            ],
            [
              -83.6638825177,
              33.9592511831
            ],
            [
              -83.6638920231,
              33.9592540469
            ],
            [
              -83.6639042391,
              33.9592587846
            ],
            [
              -83.6639158172,
              33.9592645278
            ],
            [
              -83.6639266386,
              33.9592712176
            ],
            [
              -83.6639365923,
              33.9592787853
            ],
            [
              -83.6639455762,
              33.9592871533
            ],
            [
              -83.663953498,
              33.9592962358
            ],
            [
              -83.6639602765,
              33.9593059395
            ],
            [
              -83.6639658421,
              33.9593161648
            ],
            [
              -83.6639701376,
              33.9593268068
            ],
            [
              -83.6639731191,
              33.9593377564
            ],
            [
              -83.6639747559,
              33.9593489011
            ],
            [
              -83.6639750312,
              33.9593601267
            ],
            [
              -83.663974342,
              33.9593685296
            ],
            [
              -83.6639722364,
              33.9593796195
            ],
            [
              -83.6639687951,
              33.959390475
            ],
            [
              -83.6639640536,
              33.9594009848
            ],
            [
              -83.6639580603,
              33.9594110408
            ],
            [
              -83.6639508769,
              33.9594205401
            ],
            [
              -83.6639425771,
              33.9594293851
            ],
            [
              -83.6639356703,
              33.9594355345
            ],
            [
              -83.663925628,
              33.9594430205
            ],
            [
              -83.6639147284,
              33.9594496216
            ],
            [
              -83.6639030832,
              33.95945527
            ],
            [
              -83.663890812,
              33.9594599077
            ],
            [
              -83.6638780407,
              33.959463487
            ],
            [
              -83.6638649004,
              33.9594659715
            ],
            [
              -83.6638515258,
              33.9594673353
            ],
            [
              -83.6638413811,
              33.9594676135
            ],
            [
              -83.6638279702,
              33.9594669904
            ],
            [
              -83.6638146614,
              33.9594652358
            ],
            [
              -83.663801634,
              33.9594623683
            ],
            [
              -83.6637905292,
              33.9594589449
            ],
            [
              -83.6637799125,
              33.9594547669
            ],
            [
              -83.6637683343,
              33.9594490236
            ],
            [
              -83.6637575128,
              33.9594423338
            ],
            [
              -83.6637475591,
              33.9594347661
            ],
            [
              -83.6637385753,
              33.959426398
            ],
            [
              -83.6637306535,
              33.9594173155
            ],
            [
              -83.6637238751,
              33.9594076119
            ],
            [
              -83.6637183095,
              33.9593973866
            ],
            [
              -83.6637149661,
              33.9593894382
            ],
            [
              -83.6637116528,
              33.9593785551
            ],
            [
              -83.6637096777,
              33.9593674484
            ],
            [
              -83.6637090613,
              33.9593562323
            ],
            [
              -83.6637098097,
              33.9593450218
            ],
            [
              -83.6637119154,
              33.9593339318
            ],
            [
              -83.6637143728,
              33.9593257621
            ],
            [
              -83.6637187934,
              33.9593151556
            ],
            [
              -83.663724479,
              33.9593049763
            ],
            [
              -83.6637313713,
              33.9592953284
            ],
            [
              -83.6637393996,
              33.9592863111
            ],
            [
              -83.6637484815,
              33.9592780169
            ],
            [
              -83.6637585238,
              33.9592705309
            ],
            [
              -83.6637694235,
              33.9592639298
            ],
            [
              -83.6637810686,
              33.9592582814
            ],
            [
              -83.6637933398,
              33.9592536438
            ],
            [
              -83.6638061111,
              33.9592500644
            ],
            [
              -83.6638192513,
              33.95924758
            ],
            [
              -83.6638326258,
              33.9592462161
            ],
            [
              -83.6638460974,
              33.9592459867
            ],
            [
              -83.6638595276,
              33.9592468941
            ],
            [
              -83.6638694902,
              33.9592483156
            ]
          ]
        ]
      }
    }
  ]
}